NORAD_CAT_ID,OBJECT_NAME,OBJECT_TYPE,EPOCH,MEAN_MOTION,ECCENTRICITY,INCLINATION,RA_OF_ASC_NODE,ARG_OF_PERICENTER,MEAN_ANOMALY,BSTAR,MEAN_MOTION_DOT,MEAN_MOTION_DDOT,TLE_LINE0,TLE_LINE1,TLE_LINE2,SEMIMAJOR_AXIS,PERIOD,APOGEE,PERIGEE,DECAYED
54788.0,STARLINK-5399,PAYLOAD,2023-02-14 14:00:01,15.49901386,0.0001312,53.2147,16.4358,96.9749,252.3652,-0.0006268,-0.00035883,0.0,0 STARLINK-5399,1 54788U 22175AG  23045.58334491 -.00035883  00000-0 -62680-3 0  9994,2 54788  53.2147  16.4358 0001312  96.9749 252.3652 15.49901386  8979,6795.151,92.909,417.908,416.125,0.0
54788.0,STARLINK-5399,PAYLOAD,2023-02-14 20:00:01,15.49863691,0.0001388,53.2147,15.2398,104.3239,200.7129,0.00083124,0.00046974,0.0,0 STARLINK-5399,1 54788U 22175AG  23045.83334491  .00046974  00000-0  83124-3 0  9999,2 54788  53.2147  15.2398 0001388 104.3239 200.7129 15.49863691  1303,6795.261,92.911,418.07,416.183,0.0
54788.0,STARLINK-5399,PAYLOAD,2023-02-17 02:24:13,15.49468804,0.0002572,53.2145,4.4062,28.3271,331.7879,-0.0064639,-0.00346491,0.0,0 STARLINK-5399,1 54788U 22175AG  23048.10015420 -.00346491  00000-0 -64639-2 0  9998,2 54788  53.2145   4.4062 0002572  28.3271 331.7879 15.49468804  9364,6796.416,92.935,420.029,416.533,0.0
54788.0,STARLINK-5399,PAYLOAD,2023-02-17 08:35:54,15.49046641,0.0001299,53.2147,3.1731,124.9754,235.1378,-0.0086701,-0.00451595,0.0,0 STARLINK-5399,1 54788U 22175AG  23048.35826702 -.00451595  00000-0 -86701-2 0  9994,2 54788  53.2147   3.1731 0001299 124.9754 235.1378 15.49046641  9406,6797.651,92.96,420.399,418.633,0.0
54788.0,STARLINK-5399,PAYLOAD,2023-02-17 19:27:15,15.47923421,0.0003171,53.2148,1.024,136.5695,223.5565,-0.0028452,-0.0014838,0.0,0 STARLINK-5399,1 54788U 22175AG  23048.81059251 -.00148380  00000-0 -28452-2 0  9996,2 54788  53.2148   1.0240 0003171 136.5695 223.5565 15.47923421  9477,6800.939,93.028,424.96,420.647,0.0
54788.0,STARLINK-5399,PAYLOAD,2023-02-18 06:00:00,15.46422111,0.0001303,53.2149,358.9337,75.4275,213.0701,-0.018492,-0.00848542,0.0,0 STARLINK-5399,1 54788U 22175AG  23049.25001157 -.00848542  00000-0 -18492-1 0  9996,2 54788  53.2149 358.9337 0001303  75.4275 213.0701 15.46422111  9542,6805.34,93.118,428.091,426.318,0.0
54788.0,STARLINK-5399,PAYLOAD,2023-02-18 14:00:01,15.45791435,0.0001217,53.215,357.3478,80.0538,264.8356,-0.020098,-0.00909842,0.0,0 STARLINK-5399,1 54788U 22175AG  23049.58334491 -.00909842  00000-0 -20098-1 0  9998,2 54788  53.2150 357.3478 0001217  80.0538 264.8356 15.45791435  9593,6807.191,93.156,429.884,428.227,0.0
54788.0,STARLINK-5399,PAYLOAD,2023-02-19 14:00:01,15.43830637,0.0001322,53.2151,352.6047,87.5562,61.8145,-0.021055,-0.00892612,0.0,0 STARLINK-5399,1 54788U 22175AG  23050.58334491 -.00892612  00000-0 -21055-1 0  9990,2 54788  53.2151 352.6047 0001322  87.5562  61.8145 15.43830637  9744,6812.953,93.274,435.719,433.918,0.0
54788.0,STARLINK-5399,PAYLOAD,2023-02-20 06:00:00,15.42525463,0.0001368,53.2148,349.4523,87.5517,167.557,-0.021518,-0.00874258,0.0,0 STARLINK-5399,1 54788U 22175AG  23051.25001157 -.00874258  00000-0 -21518-1 0  9995,2 54788  53.2148 349.4523 0001368  87.5517 167.5570 15.42525463  9858,6816.796,93.353,439.593,437.728,0.0
54788.0,STARLINK-5399,PAYLOAD,2023-02-20 14:00:01,15.41874234,0.0001252,53.2146,347.8759,96.2595,210.5521,-0.022316,-0.00885995,0.0,0 STARLINK-5399,1 54788U 22175AG  23051.58334491 -.00885995  00000-0 -22316-1 0  9998,2 54788  53.2146 347.8759 0001252  96.2595 210.5521 15.41874234  1303,6818.715,93.393,441.434,439.726,0.0
54788.0,STARLINK-5399,PAYLOAD,2023-02-20 22:00:01,15.41266964,0.0001233,53.2146,346.3029,91.0284,266.7459,-0.024639,-0.00952444,0.0,0 STARLINK-5399,1 54788U 22175AG  23051.91668981 -.00952444  00000-0 -24639-1 0  9993,2 54788  53.2146 346.3029 0001233  91.0284 266.7459 15.41266964  9951,6820.506,93.43,443.212,441.53,0.0
54788.0,STARLINK-5399,PAYLOAD,2023-02-21 14:00:01,15.39917578,0.0001294,53.2141,343.1609,84.2915,12.9205,-0.023599,-0.00878318,0.0,0 STARLINK-5399,1 54788U 22175AG  23052.58334491 -.00878318  00000-0 -23599-1 0  9994,2 54788  53.2141 343.1609 0001294  84.2915  12.9205 15.39917578 10051,6824.49,93.511,447.238,445.472,0.0
54788.0,STARLINK-5399,PAYLOAD,2023-02-22 00:00:00,15.39125846,0.0001403,53.2141,341.2014,87.9834,159.8098,-0.025452,-0.00919213,0.0,0 STARLINK-5399,1 54788U 22175AG  23053.00001157 -.00919213  00000-0 -25452-1 0  9992,2 54788  53.2141 341.2014 0001403  87.9834 159.8098 15.39125846  1300,6826.83,93.56,449.653,447.737,0.0
54788.0,STARLINK-5399,PAYLOAD,2023-02-22 06:00:00,15.38622405,0.0001476,53.2141,340.0271,80.5074,113.052,-0.024638,-0.00878599,0.0,0 STARLINK-5399,1 54788U 22175AG  23053.25001157 -.00878599  00000-0 -24638-1 0  9995,2 54788  53.2141 340.0271 0001476  80.5074 113.0520 15.38622405 10154,6828.319,93.59,451.192,449.176,0.0
54788.0,STARLINK-5399,PAYLOAD,2023-02-22 14:00:01,15.37964533,0.0001357,53.2142,338.4597,92.5839,147.9867,-0.025117,-0.00876689,0.0,0 STARLINK-5399,1 54788U 22175AG  23053.58334491 -.00876689  00000-0 -25117-1 0  9992,2 54788  53.2142 338.4597 0001357  92.5839 147.9867 15.37964533  1304,6830.266,93.63,453.058,451.204,0.0
54788.0,STARLINK-5399,PAYLOAD,2023-02-22 22:00:00,15.37350863,0.0001333,53.2143,336.8964,93.7914,192.9879,-0.027658,-0.0094043,0.0,0 STARLINK-5399,1 54788U 22175AG  23053.91667824 -.00940430  00000-0 -27658-1 0  9996,2 54788  53.2143 336.8964 0001333  93.7914 192.9879 15.37350863 10269,6832.084,93.668,454.859,453.038,0.0
54788.0,STARLINK-5399,PAYLOAD,2023-02-23 14:00:01,15.36010725,0.000124,53.2144,333.7725,90.7379,286.1511,-0.026726,-0.0087548,0.0,0 STARLINK-5399,1 54788U 22175AG  23054.58334491 -.00875480  00000-0 -26726-1 0  9998,2 54788  53.2144 333.7725 0001240  90.7379 286.1511 15.36010725  1303,6836.057,93.749,458.77,457.074,0.0
54788.0,STARLINK-5399,PAYLOAD,2023-02-23 22:00:00,15.35397681,0.0001324,53.2145,332.2139,85.8969,334.854,-0.029524,-0.00942127,0.0,0 STARLINK-5399,1 54788U 22175AG  23054.91667824 -.00942127  00000-0 -29524-1 0  9996,2 54788  53.2145 332.2139 0001324  85.8969 334.8540 15.35397681 10413,6837.877,93.787,460.647,458.836,0.0
54788.0,STARLINK-5399,PAYLOAD,2023-02-24 14:00:01,15.34057951,0.0001404,53.2145,329.0991,87.2131,58.9528,-0.028434,-0.00874881,0.0,0 STARLINK-5399,1 54788U 22175AG  23055.58334491 -.00874881  00000-0 -28434-1 0  9991,2 54788  53.2145 329.0991 0001404  87.2131  58.9528 15.34057951 10512,6841.857,93.869,464.683,462.761,0.0
54788.0,STARLINK-5399,PAYLOAD,2023-02-24 22:00:00,15.33439428,0.0001485,53.2147,327.5452,86.128,101.5553,-0.031134,-0.00933917,0.0,0 STARLINK-5399,1 54788U 22175AG  23055.91667824 -.00933917  00000-0 -31134-1 0  9994,2 54788  53.2147 327.5452 0001485  86.1280 101.5553 15.33439428  1303,6843.697,93.907,466.578,464.545,0.0
54788.0,STARLINK-5399,PAYLOAD,2023-02-25 06:00:00,15.32780325,0.0001459,53.2144,325.9929,82.0522,146.3741,-0.030729,-0.00905205,0.0,0 STARLINK-5399,1 54788U 22175AG  23056.25001157 -.00905205  00000-0 -30729-1 0  9991,2 54788  53.2144 325.9929 0001459  82.0522 146.3741 15.32780325 10621,6845.658,93.947,468.522,466.525,0.0
54788.0,STARLINK-5399,PAYLOAD,2023-02-25 14:00:01,15.32103789,0.0001383,53.2145,324.4392,92.3232,176.0797,-0.030143,-0.00871962,0.0,0 STARLINK-5399,1 54788U 22175AG  23056.58334491 -.00871962  00000-0 -30143-1 0  9999,2 54788  53.2145 324.4392 0001383  92.3232 176.0797 15.32103789  1307,6847.674,93.988,470.486,468.592,0.0
54788.0,STARLINK-5399,PAYLOAD,2023-02-25 22:00:00,15.31486826,0.0001387,53.2145,322.8902,87.6815,219.8913,-0.033114,-0.0093384,0.0,0 STARLINK-5399,1 54788U 22175AG  23056.91667824 -.00933840  00000-0 -33114-1 0  9990,2 54788  53.2145 322.8902 0001387  87.6815 219.8913 15.31486826 10721,6849.513,94.026,472.328,470.428,0.0
54788.0,STARLINK-5399,PAYLOAD,2023-02-26 14:00:01,15.30151736,0.0001237,53.2141,319.7934,86.9426,296.656,-0.032063,-0.00872412,0.0,0 STARLINK-5399,1 54788U 22175AG  23057.58334491 -.00872412  00000-0 -32063-1 0  9994,2 54788  53.2141 319.7934 0001237  86.9426 296.6560 15.30151736  1304,6853.496,94.108,476.209,474.513,0.0
54788.0,STARLINK-5399,PAYLOAD,2023-02-27 00:00:00,15.29351922,0.0001521,53.2141,317.8635,79.026,80.4882,-0.03407,-0.00901733,0.0,0 STARLINK-5399,1 54788U 22175AG  23058.00001157 -.00901733  00000-0 -34070-1 0  9991,2 54788  53.2141 317.8635 0001521  79.0260  80.4882 15.29351922  1309,6855.885,94.158,478.793,476.708,0.0
54788.0,STARLINK-5399,PAYLOAD,2023-02-27 06:00:00,15.28883097,0.0001418,53.2138,316.7056,72.8556,23.6152,-0.035418,-0.009337,0.0,0 STARLINK-5399,1 54788U 22175AG  23058.25001157 -.00933700  00000-0 -35418-1 0  9994,2 54788  53.2138 316.7056 0001418  72.8556  23.6152 15.28883097 10923,6857.287,94.186,480.124,478.18,0.0
54788.0,STARLINK-5399,PAYLOAD,2023-02-27 14:00:01,15.28204533,0.0001364,53.2138,315.1615,85.1333,46.6188,-0.034412,-0.0088085,0.0,0 STARLINK-5399,1 54788U 22175AG  23058.58334491 -.00880850  00000-0 -34412-1 0  9990,2 54788  53.2138 315.1615 0001364  85.1333  46.6188 15.28204533  1305,6859.317,94.228,482.117,480.246,0.0
54788.0,STARLINK-5399,PAYLOAD,2023-02-27 22:00:01,15.27573407,0.00015,53.2138,313.622,82.347,83.9516,-0.03697,-0.00935973,0.0,0 STARLINK-5399,1 54788U 22175AG  23058.91668981 -.00935973  00000-0 -36970-1 0  9999,2 54788  53.2138 313.6220 0001500  82.3470  83.9516 15.27573407  1300,6861.206,94.267,484.1,482.042,0.0
54788.0,STARLINK-5399,PAYLOAD,2023-02-28 14:00:01,15.26257026,0.0001337,53.2133,310.5434,92.1478,140.7168,-0.036875,-0.00888621,0.0,0 STARLINK-5399,1 54788U 22175AG  23059.58334491 -.00888621  00000-0 -36875-1 0  9990,2 54788  53.2133 310.5434 0001337  92.1478 140.7168 15.26257026 11135,6865.15,94.348,487.933,486.098,0.0
54788.0,STARLINK-5399,PAYLOAD,2023-02-28 22:00:00,15.25613616,0.0001425,53.2132,309.0087,86.5445,178.4611,-0.038731,-0.00924613,0.0,0 STARLINK-5399,1 54788U 22175AG  23059.91667824 -.00924613  00000-0 -38731-1 0  9991,2 54788  53.2132 309.0087 0001425  86.5445 178.4611 15.25613616  1309,6867.08,94.388,489.924,487.967,0.0
